[{"OBJECT_NAME":"ONEWEB-0597","OBJECT_ID":"2022-166X","EPOCH":"2026-05-31T04:19:35.897376","MEAN_MOTION":13.21825154,"ECCENTRICITY":0.0002059,"INCLINATION":87.9254,"RA_OF_ASC_NODE":247.371,"ARG_OF_PERICENTER":96.0842,"MEAN_ANOMALY":264.0527,"EPHEMERIS_TYPE":0,"CLASSIFICATION_TYPE":"U","NORAD_CAT_ID":54663,"ELEMENT_SET_NO":999,"REV_AT_EPOCH":16929,"BSTAR":-8.5986e-05,"MEAN_MOTION_DOT":-2.2e-07,"MEAN_MOTION_DDOT":0.0},{"OBJECT_NAME":"ONEWEB-0600","OBJECT_ID":"2022-166Y","EPOCH":"2026-05-30T16:58:55.005312","MEAN_MOTION":13.21827273,"ECCENTRICITY":0.0001913,"INCLINATION":87.9257,"RA_OF_ASC_NODE":247.4569,"ARG_OF_PERICENTER":93.9679,"MEAN_ANOMALY":266.1673,"EPHEMERIS_TYPE":0,"CLASSIFICATION_TYPE":"U","NORAD_CAT_ID":54664,"ELEMENT_SET_NO":999,"REV_AT_EPOCH":16920,"BSTAR":-2.4682000000000002e-05,"MEAN_MOTION_DOT":3e-08,"MEAN_MOTION_DDOT":0.0},{"OBJECT_NAME":"ONEWEB-0601","OBJECT_ID":"2022-166Z","EPOCH":"2026-05-30T16:46:47.907840","MEAN_MOTION":13.21825599,"ECCENTRICITY":0.0002213,"INCLINATION":87.9253,"RA_OF_ASC_NODE":247.4746,"ARG_OF_PERICENTER":96.3419,"MEAN_ANOMALY":263.7967,"EPHEMERIS_TYPE":0,"CLASSIFICATION_TYPE":"U","NORAD_CAT_ID":54665,"ELEMENT_SET_NO":999,"REV_AT_EPOCH":16939,"BSTAR":-0.00058092,"MEAN_MOTION_DOT":-2.27e-06,"MEAN_MOTION_DDOT":0.0},{"OBJECT_NAME":"ONEWEB-0602","OBJECT_ID":"2022-166AA","EPOCH":"2026-05-31T04:40:10.422048","MEAN_MOTION":13.21824856,"ECCENTRICITY":0.0001899,"INCLINATION":87.9253,"RA_OF_ASC_NODE":247.382,"ARG_OF_PERICENTER":91.2849,"MEAN_ANOMALY":268.8503,"EPHEMERIS_TYPE":0,"CLASSIFICATION_TYPE":"U","NORAD_CAT_ID":54666,"ELEMENT_SET_NO":999,"REV_AT_EPOCH":16930,"BSTAR":8.5834e-05,"MEAN_MOTION_DOT":4.8e-07,"MEAN_MOTION_DDOT":0.0},{"OBJECT_NAME":"ONEWEB-0603","OBJECT_ID":"2022-166AB","EPOCH":"2026-05-31T04:48:40.145760","MEAN_MOTION":13.21825689,"ECCENTRICITY":0.0002036,"INCLINATION":87.9265,"RA_OF_ASC_NODE":247.3362,"ARG_OF_PERICENTER":96.6791,"MEAN_ANOMALY":263.4575,"EPHEMERIS_TYPE":0,"CLASSIFICATION_TYPE":"U","NORAD_CAT_ID":54667,"ELEMENT_SET_NO":999,"REV_AT_EPOCH":16923,"BSTAR":8.3992e-05,"MEAN_MOTION_DOT":4.8e-07,"MEAN_MOTION_DDOT":0.0},{"OBJECT_NAME":"ONEWEB-0604","OBJECT_ID":"2022-166AC","EPOCH":"2026-05-31T04:31:42.750336","MEAN_MOTION":13.21826577,"ECCENTRICITY":0.0001931,"INCLINATION":87.9265,"RA_OF_ASC_NODE":247.3538,"ARG_OF_PERICENTER":100.4676,"MEAN_ANOMALY":259.6676,"EPHEMERIS_TYPE":0,"CLASSIFICATION_TYPE":"U","NORAD_CAT_ID":54668,"ELEMENT_SET_NO":999,"REV_AT_EPOCH":16919,"BSTAR":-8.086e-06,"MEAN_MOTION_DOT":1e-07,"MEAN_MOTION_DDOT":0.0},{"OBJECT_NAME":"ONEWEB-0605","OBJECT_ID":"2022-166AD","EPOCH":"2026-05-31T04:22:01.092576","MEAN_MOTION":13.21824426,"ECCENTRICITY":0.0002629,"INCLINATION":87.9257,"RA_OF_ASC_NODE":247.3702,"ARG_OF_PERICENTER":100.1646,"MEAN_ANOMALY":259.9784,"EPHEMERIS_TYPE":0,"CLASSIFICATION_TYPE":"U","NORAD_CAT_ID":54669,"ELEMENT_SET_NO":999,"REV_AT_EPOCH":16926,"BSTAR":-2.2628e-05,"MEAN_MOTION_DOT":4e-08,"MEAN_MOTION_DDOT":0.0},{"OBJECT_NAME":"ONEWEB-0606","OBJECT_ID":"2022-166AE","EPOCH":"2026-05-31T04:53:30.754752","MEAN_MOTION":13.21825503,"ECCENTRICITY":0.0001855,"INCLINATION":87.9255,"RA_OF_ASC_NODE":247.3783,"ARG_OF_PERICENTER":103.0754,"MEAN_ANOMALY":257.0587,"EPHEMERIS_TYPE":0,"CLASSIFICATION_TYPE":"U","NORAD_CAT_ID":54670,"ELEMENT_SET_NO":999,"REV_AT_EPOCH":16932,"BSTAR":0.00014549000000000002,"MEAN_MOTION_DOT":7.3e-07,"MEAN_MOTION_DDOT":0.0},{"OBJECT_NAME":"ONEWEB-0607","OBJECT_ID":"2022-166AF","EPOCH":"2026-05-30T19:00:01.514016","MEAN_MOTION":13.21827413,"ECCENTRICITY":0.0002016,"INCLINATION":87.9263,"RA_OF_ASC_NODE":247.4303,"ARG_OF_PERICENTER":95.1405,"MEAN_ANOMALY":264.9959,"EPHEMERIS_TYPE":0,"CLASSIFICATION_TYPE":"U","NORAD_CAT_ID":54671,"ELEMENT_SET_NO":999,"REV_AT_EPOCH":16924,"BSTAR":-0.00017949,"MEAN_MOTION_DOT":-6.1e-07,"MEAN_MOTION_DDOT":0.0},{"OBJECT_NAME":"ONEWEB-0608","OBJECT_ID":"2022-166AG","EPOCH":"2026-05-30T19:09:44.530848","MEAN_MOTION":13.21826301,"ECCENTRICITY":0.0002509,"INCLINATION":87.9266,"RA_OF_ASC_NODE":247.4248,"ARG_OF_PERICENTER":95.4517,"MEAN_ANOMALY":264.6904,"EPHEMERIS_TYPE":0,"CLASSIFICATION_TYPE":"U","NORAD_CAT_ID":54672,"ELEMENT_SET_NO":999,"REV_AT_EPOCH":16925,"BSTAR":-0.00015036,"MEAN_MOTION_DOT":-4.9e-07,"MEAN_MOTION_DDOT":0.0},{"OBJECT_NAME":"ONEWEB-0610","OBJECT_ID":"2022-166AH","EPOCH":"2026-05-30T16:51:39.047328","MEAN_MOTION":13.2182777,"ECCENTRICITY":0.0002463,"INCLINATION":87.9257,"RA_OF_ASC_NODE":247.4602,"ARG_OF_PERICENTER":88.7258,"MEAN_ANOMALY":271.4158,"EPHEMERIS_TYPE":0,"CLASSIFICATION_TYPE":"U","NORAD_CAT_ID":54673,"ELEMENT_SET_NO":999,"REV_AT_EPOCH":16914,"BSTAR":6.381900000000001e-06,"MEAN_MOTION_DOT":1.6e-07,"MEAN_MOTION_DDOT":0.0},{"OBJECT_NAME":"ONEWEB-0611","OBJECT_ID":"2022-166AJ","EPOCH":"2026-05-30T16:41:57.977088","MEAN_MOTION":13.21826714,"ECCENTRICITY":0.0001918,"INCLINATION":87.9255,"RA_OF_ASC_NODE":247.4576,"ARG_OF_PERICENTER":103.3959,"MEAN_ANOMALY":256.7389,"EPHEMERIS_TYPE":0,"CLASSIFICATION_TYPE":"U","NORAD_CAT_ID":54674,"ELEMENT_SET_NO":999,"REV_AT_EPOCH":16913,"BSTAR":0.00012020000000000001,"MEAN_MOTION_DOT":6.3e-07,"MEAN_MOTION_DDOT":0.0},{"OBJECT_NAME":"ONEWEB-0612","OBJECT_ID":"2022-166AK","EPOCH":"2026-05-30T17:01:19.754688","MEAN_MOTION":13.21825548,"ECCENTRICITY":0.0002143,"INCLINATION":87.9267,"RA_OF_ASC_NODE":247.4484,"ARG_OF_PERICENTER":97.5932,"MEAN_ANOMALY":262.5445,"EPHEMERIS_TYPE":0,"CLASSIFICATION_TYPE":"U","NORAD_CAT_ID":54675,"ELEMENT_SET_NO":999,"REV_AT_EPOCH":16912,"BSTAR":-0.0006581200000000001,"MEAN_MOTION_DOT":-2.59e-06,"MEAN_MOTION_DDOT":0.0},{"OBJECT_NAME":"ONEWEB-0615","OBJECT_ID":"2022-166AL","EPOCH":"2026-05-31T05:15:18.812736","MEAN_MOTION":13.21825557,"ECCENTRICITY":0.0001737,"INCLINATION":87.9258,"RA_OF_ASC_NODE":247.3631,"ARG_OF_PERICENTER":101.5433,"MEAN_ANOMALY":258.5896,"EPHEMERIS_TYPE":0,"CLASSIFICATION_TYPE":"U","NORAD_CAT_ID":54676,"ELEMENT_SET_NO":999,"REV_AT_EPOCH":16920,"BSTAR":9.267300000000001e-05,"MEAN_MOTION_DOT":5.1e-07,"MEAN_MOTION_DDOT":0.0},{"OBJECT_NAME":"ONEWEB-0655","OBJECT_ID":"2022-166AM","EPOCH":"2026-05-31T04:41:24.116064","MEAN_MOTION":13.21825832,"ECCENTRICITY":0.0001936,"INCLINATION":87.9256,"RA_OF_ASC_NODE":247.3692,"ARG_OF_PERICENTER":89.9096,"MEAN_ANOMALY":270.226,"EPHEMERIS_TYPE":0,"CLASSIFICATION_TYPE":"U","NORAD_CAT_ID":54677,"ELEMENT_SET_NO":999,"REV_AT_EPOCH":16919,"BSTAR":5.9716e-05,"MEAN_MOTION_DOT":3.8e-07,"MEAN_MOTION_DDOT":0.0},{"OBJECT_NAME":"ONEWEB-0659","OBJECT_ID":"2022-166AN","EPOCH":"2026-05-31T05:05:35.822688","MEAN_MOTION":13.21827607,"ECCENTRICITY":0.0002001,"INCLINATION":87.9255,"RA_OF_ASC_NODE":247.366,"ARG_OF_PERICENTER":102.023,"MEAN_ANOMALY":258.1128,"EPHEMERIS_TYPE":0,"CLASSIFICATION_TYPE":"U","NORAD_CAT_ID":54678,"ELEMENT_SET_NO":999,"REV_AT_EPOCH":16928,"BSTAR":0.00017516000000000002,"MEAN_MOTION_DOT":8.5e-07,"MEAN_MOTION_DDOT":0.0}]