ONEWEB-0597             
1 54663U 22166X   26151.18027659 -.00000022  00000+0 -85986-4 0  9999
2 54663  87.9254 247.3710 0002059  96.0842 264.0527 13.21825154169295
ONEWEB-0600             
1 54664U 22166Y   26150.70758108  .00000003  00000+0 -24682-4 0  9991
2 54664  87.9257 247.4569 0001913  93.9679 266.1673 13.21827273169204
ONEWEB-0601             
1 54665U 22166Z   26150.69916560 -.00000227  00000+0 -58092-3 0  9998
2 54665  87.9253 247.4746 0002213  96.3419 263.7967 13.21825599169399
ONEWEB-0602             
1 54666U 22166AA  26151.19456507  .00000048  00000+0  85834-4 0  9999
2 54666  87.9253 247.3820 0001899  91.2849 268.8503 13.21824856169300
ONEWEB-0603             
1 54667U 22166AB  26151.20046465  .00000048  00000+0  83992-4 0  9993
2 54667  87.9265 247.3362 0002036  96.6791 263.4575 13.21825689169231
ONEWEB-0604             
1 54668U 22166AC  26151.18868924  .00000010  00000+0 -80860-5 0  9995
2 54668  87.9265 247.3538 0001931 100.4676 259.6676 13.21826577169197
ONEWEB-0605             
1 54669U 22166AD  26151.18195709  .00000004  00000+0 -22628-4 0  9990
2 54669  87.9257 247.3702 0002629 100.1646 259.9784 13.21824426169263
ONEWEB-0606             
1 54670U 22166AE  26151.20382818  .00000073  00000+0  14549-3 0  9991
2 54670  87.9255 247.3783 0001855 103.0754 257.0587 13.21825503169328
ONEWEB-0607             
1 54671U 22166AF  26150.79168419 -.00000061  00000+0 -17949-3 0  9990
2 54671  87.9263 247.4303 0002016  95.1405 264.9959 13.21827413169244
ONEWEB-0608             
1 54672U 22166AG  26150.79843207 -.00000049  00000+0 -15036-3 0  9997
2 54672  87.9266 247.4248 0002509  95.4517 264.6904 13.21826301169253
ONEWEB-0610             
1 54673U 22166AH  26150.70253527  .00000016  00000+0  63819-5 0  9995
2 54673  87.9257 247.4602 0002463  88.7258 271.4158 13.21827770169140
ONEWEB-0611             
1 54674U 22166AJ  26150.69580992  .00000063  00000+0  12020-3 0  9991
2 54674  87.9255 247.4576 0001918 103.3959 256.7389 13.21826714169133
ONEWEB-0612             
1 54675U 22166AK  26150.70925642 -.00000259  00000+0 -65812-3 0  9995
2 54675  87.9267 247.4484 0002143  97.5932 262.5445 13.21825548169122
ONEWEB-0615             
1 54676U 22166AL  26151.21896774  .00000051  00000+0  92673-4 0  9990
2 54676  87.9258 247.3631 0001737 101.5433 258.5896 13.21825557169200
ONEWEB-0655             
1 54677U 22166AM  26151.19541801  .00000038  00000+0  59716-4 0  9992
2 54677  87.9256 247.3692 0001936  89.9096 270.2260 13.21825832169191
ONEWEB-0659             
1 54678U 22166AN  26151.21222017  .00000085  00000+0  17516-3 0  9994
2 54678  87.9255 247.3660 0002001 102.0230 258.1128 13.21827607169287
